     2.10           N: GPS NAV DATA                         RINEX VERSION / TYPE
teqc  2013May1      CORS-ADM Account    20131005 23:45:05UTCPGM / RUN BY / DATE
Solaris x86 5.10|AMD64|cc SC5.8 -xarch=amd64|=+|=+          COMMENT
     2              NAVIGATION DATA                         COMMENT
CCRINEXN V1.6.0 UX  CDDIS               02-OCT-13 15:33     COMMENT
IGS BROADCAST EPHEMERIS FILE                                COMMENT
    1.4900D-08  7.4510D-09 -1.1920D-07 -5.9600D-08          ION ALPHA
    1.0650D+05  3.2770D+04 -2.6210D+05 -6.5540D+04          ION BETA
   -1.862645149230D-09-7.105427357600D-15   405504     1760 DELTA-UTC: A0,A1,T,W
                                                            END OF HEADER
29 13 10  1 14  0  0.0 4.752078093590D-04 3.069544618480D-12 0.000000000000D+00
    1.020000000000D+02-6.046875000000D+01 4.677337687030D-09-1.321696868290D+00
   -3.185123205190D-06 1.446114853020D-03 4.939734935760D-06 5.153573036190D+03
    2.232000000000D+05-9.313225746150D-08 1.563940333420D+00-1.005828380590D-07
    9.667749191070D-01 2.843125000000D+02-9.883552268370D-01-8.333561412000D-09
   -3.200133298400D-10 0.000000000000D+00 1.760000000000D+03 0.000000000000D+00
    2.000000000000D+00 0.000000000000D+00-9.313225746160D-09 1.020000000000D+02
    2.160000000000D+05 4.000000000000D+00
30 13 10  1 14  0  0.0-2.310378476980D-05-5.184119800110D-11 0.000000000000D+00
    1.100000000000D+02-4.918750000000D+01 5.235218067850D-09-1.776609508110D+00
   -2.551823854450D-06 8.334241225380D-03 4.220753908160D-06 5.153615560530D+03
    2.232000000000D+05-2.868473529820D-07 1.427505192060D+00-5.029141902920D-08
    9.444153090660D-01 2.891562500000D+02-7.522543894090D-01-8.631430962320D-09
   -2.110802209100D-10 0.000000000000D+00 1.760000000000D+03 0.000000000000D+00
    2.000000000000D+00 6.300000000000D+01-2.328306436540D-09 1.100000000000D+02
    2.160000000000D+05 4.000000000000D+00
31 13 10  1 14  0  0.0 3.270246088500D-04 7.958078640510D-13 0.000000000000D+00
    9.600000000000D+01 1.384375000000D+01 3.932663811230D-09-6.695397401720D-01
    4.339963197710D-07 7.962775533090D-03 1.109391450880D-05 5.153681612010D+03
    2.232000000000D+05-1.080334186550D-07-5.531562010390D-01-1.136213541030D-07
    9.800233992800D-01 1.760312500000D+02-7.328261716890D-01-7.775323873450D-09
    2.500104139370D-11 0.000000000000D+00 1.760000000000D+03 0.000000000000D+00
    2.800000000000D+00 0.000000000000D+00-1.303851604460D-08 9.600000000000D+01
    2.160000000000D+05 4.000000000000D+00
32 13 10  1 14  0  0.0-5.443426780400D-04 3.296918293930D-12 0.000000000000D+00
    9.800000000000D+01 5.028125000000D+01 5.101283917520D-09-2.077289252010D-01
    2.518296241760D-06 1.162044925150D-02 6.096437573430D-06 5.153578819270D+03
    2.232000000000D+05 2.030283212660D-07-2.588850044360D+00-1.341104507450D-07
    9.489031130980D-01 2.571562500000D+02-2.838842886460D-01-8.556070680400D-09
    2.750114553310D-10 0.000000000000D+00 1.760000000000D+03 0.000000000000D+00
    2.000000000000D+00 0.000000000000D+00-2.793967723850D-09 9.800000000000D+01
    2.198100000000D+05 4.000000000000D+00
 1 13 10  1 15 59 44.0 8.057290688160D-05 3.865352482530D-12 0.000000000000D+00
    7.000000000000D+00-2.262500000000D+01 4.379110978980D-09 8.782647004610D-01
   -1.057982444760D-06 2.399975201120D-03 1.182593405250D-05 5.153697761540D+03
    2.303840000000D+05 1.303851604460D-08 2.564252721180D+00 3.911554813380D-08
    9.607152169140D-01 1.478750000000D+02 3.945767809410D-01-7.952474109610D-09
   -1.285767843110D-10 1.000000000000D+00 1.760000000000D+03 0.000000000000D+00
    2.000000000000D+00 0.000000000000D+00 8.381903171540D-09 7.000000000000D+00
    2.263680000000D+05 4.000000000000D+00
 3 13 10  1 15 59 44.0 2.668919041750D-04 5.115907697470D-12 0.000000000000D+00
    2.000000000000D+00-5.100000000000D+01 5.473085118820D-09 1.869062589410D+00
   -2.983957529070D-06 1.673198665960D-02 3.628432750700D-06 5.153726547240D+03
    2.303840000000D+05 2.048909664150D-08 1.367992253870D+00-4.079192876820D-07
    9.353907064120D-01 2.965312500000D+02 1.338446146530D+00-8.564285308290D-09
   -1.328626771210D-10 0.000000000000D+00 1.760000000000D+03 0.000000000000D+00
    2.000000000000D+00 0.000000000000D+00-4.656612873080D-09 2.000000000000D+00
    2.235000000000D+05 4.000000000000D+00
 5 13 10  1 15 59 44.0-3.993678838020D-04 2.273736754430D-13 0.000000000000D+00
    3.000000000000D+00 5.893750000000D+01 4.961635243450D-09-2.303439227030D+00
    3.037974238400D-06 3.313528373840D-03 7.303431630140D-06 5.153711906430D+03
    2.303840000000D+05-7.450580596920D-09-2.677757357490D+00-4.284083843230D-08
    9.484485142310D-01 2.336250000000D+02 2.810158617820D-01-8.302488689120D-09
    3.796586714500D-10 1.000000000000D+00 1.760000000000D+03 0.000000000000D+00
    2.000000000000D+00 0.000000000000D+00-9.778887033460D-09 3.000000000000D+00
    2.233860000000D+05 4.000000000000D+00
 7 13 10  1 15 59 44.0 2.647414803510D-04 4.206412995700D-12 0.000000000000D+00
    2.600000000000D+01 1.490625000000D+01 3.933020968970D-09 3.186826317590D-01
    8.009374141690D-07 6.974233430810D-03 1.157820224760D-05 5.153672462460D+03
    2.303840000000D+05 1.117587089540D-07-5.582931530250D-01 1.061707735060D-07
    9.750442625070D-01 1.638750000000D+02-2.869719728440D+00-7.816039855150D-09
   -3.928735076160D-11 1.000000000000D+00 1.760000000000D+03 0.000000000000D+00
    2.000000000000D+00 0.000000000000D+00-1.071020960810D-08 2.600000000000D+01
    2.232180000000D+05 4.000000000000D+00
26 13 10  1 15 59 44.0 2.171583473680D-04 1.875832822410D-11 0.000000000000D+00
    2.000000000000D+00-4.525000000000D+01 4.271963658720D-09 1.901618447340D+00
   -2.713873982430D-06 2.107880846600D-02 5.995854735370D-06 5.153682680130D+03
    2.303840000000D+05 2.980232238770D-08-1.532451744450D+00-5.122274160380D-07
    9.772165320080D-01 2.736875000000D+02 1.252080862760D+00-7.992475775840D-09
   -3.439428980310D-10 1.000000000000D+00 1.760000000000D+03 0.000000000000D+00
    2.000000000000D+00 0.000000000000D+00-5.587935447690D-09 2.000000000000D+00
    2.241780000000D+05 4.000000000000D+00
31 13 10  1 15 59 44.0 3.270274028180D-04 7.958078640510D-13 0.000000000000D+00
    6.000000000000D+00-3.218750000000D+00 3.808372919730D-09 3.783155745910D-01
   -1.266598701480D-07 7.965150056410D-03 1.100637018680D-05 5.153686130520D+03
    2.303840000000D+05 1.676380634310D-08-5.532118767750D-01-1.266598701480D-07
    9.800230818260D-01 1.758125000000D+02-7.328450521090D-01-7.822468694360D-09
   -4.893060958490D-11 0.000000000000D+00 1.760000000000D+03 0.000000000000D+00
    2.000000000000D+00 0.000000000000D+00-1.303851604460D-08 6.000000000000D+00
    2.232000000000D+05 4.000000000000D+00
 1 13 10  1 16  0  0.0 8.057383820410D-05 3.865352482530D-12 0.000000000000D+00
    9.600000000000D+01-2.262500000000D+01 4.379468136710D-09 8.805973745410D-01
   -1.057982444760D-06 2.399979857730D-03 1.182593405250D-05 5.153697761540D+03
    2.304000000000D+05 1.303851604460D-08 2.564252593910D+00 3.911554813380D-08
    9.607152037470D-01 1.478750000000D+02 3.945778693520D-01-7.952831267340D-09
   -1.285767843110D-10 1.000000000000D+00 1.760000000000D+03 0.000000000000D+00
    2.000000000000D+00 0.000000000000D+00 8.381903171540D-09 9.600000000000D+01
    2.232180000000D+05 4.000000000000D+00
 2 13 10  1 16  0  0.0 4.539024084810D-04 1.818989403550D-12 0.000000000000D+00
    8.000000000000D+01-5.081250000000D+01 4.788056617850D-09 1.712442427700D+00
   -2.484768629070D-06 1.261283608620D-02 1.223385334010D-05 5.153745880130D+03
    2.304000000000D+05-2.589076757430D-07 2.539852101960D+00 1.564621925350D-07
    9.392077069140D-01 1.356875000000D+02-2.554828447840D+00-8.233556947350D-09
   -1.903650709290D-10 1.000000000000D+00 1.760000000000D+03 0.000000000000D+00
    2.000000000000D+00 0.000000000000D+00-1.722946763040D-08 8.000000000000D+01
    2.232000000000D+05
 4 13 10  1 16  0  0.0 1.465901732440D-06 4.547473508860D-13 0.000000000000D+00
    7.800000000000D+01-2.896875000000D+01 4.834844247810D-09-1.297643096710D+00
   -1.404434442520D-06 1.060907228380D-02 1.178681850430D-05 5.153618030550D+03
    2.304000000000D+05 2.142041921620D-07 2.556151102800D+00 1.825392246250D-07
    9.382537716810D-01 1.374687500000D+02 1.029322642820D+00-8.125695610700D-09
   -1.025042697140D-10 1.000000000000D+00 1.760000000000D+03 0.000000000000D+00
    2.000000000000D+00 0.000000000000D+00-6.053596735000D-09 7.800000000000D+01
    2.300280000000D+05 4.000000000000D+00
 5 13 10  1 16  0  0.0-3.993702121080D-04 2.273736754430D-13 0.000000000000D+00
    6.500000000000D+01 5.893750000000D+01 4.961635243450D-09-2.301106204780D+00
    3.039836883540D-06 3.313528723080D-03 7.303431630140D-06 5.153711904530D+03
    2.304000000000D+05-7.450580596920D-09-2.677757489150D+00-4.284083843230D-08
    9.484485156930D-01 2.336250000000D+02 2.810165127800D-01-8.302488689120D-09
    3.796586714500D-10 1.000000000000D+00 1.760000000000D+03 0.000000000000D+00
    2.800000000000D+00 0.000000000000D+00-9.778887033460D-09 6.500000000000D+01
    2.232180000000D+05 4.000000000000D+00
 6 13 10  1 16  0  0.0 8.118292316790D-05 1.875832822410D-11 0.000000000000D+00
    9.900000000000D+01-5.290625000000D+01 5.294863409460D-09-2.590781454640D+00
   -2.667307853700D-06 8.135889656840D-03 4.343688488010D-06 5.153679040910D+03
    2.304000000000D+05-2.142041921620D-07 1.448460087690D+00 1.862645149230D-08
    9.419410479230D-01 2.872500000000D+02-2.207274102280D-01-8.496782496520D-09
   -1.864363372500D-10 0.000000000000D+00 1.760000000000D+03 0.000000000000D+00
    2.000000000000D+00 0.000000000000D+00-5.122274160390D-09 9.900000000000D+01
    2.232000000000D+05 4.000000000000D+00
